{
  "norad_id": 65759,
  "name": "STARLINK-34692",
  "history": [
    {
      "epoch": "2026-03-28T17:14:06.945216Z",
      "apogee_km": 475.77219346551647,
      "perigee_km": 474.6468739646807,
      "latitude_deg": -3.665155446874004e-06,
      "longitude_deg": 160.0707959319473,
      "height_km": 475.76414284517074,
      "semi_major_axis_km": 6853.346533715098,
      "eccentricity": 8.21e-05,
      "inclination_deg": 53.1577,
      "raan_deg": 244.7343,
      "arg_perigee_deg": 52.304,
      "mean_anomaly_deg": 307.8035,
      "mean_motion_rev_day": 15.30201854
    },
    {
      "epoch": "2026-03-29T23:01:07.536000Z",
      "apogee_km": 475.82366312600516,
      "perigee_km": 474.5012504628221,
      "latitude_deg": -2.316612075155709e-06,
      "longitude_deg": 66.32677093764512,
      "height_km": 475.90314496121096,
      "semi_major_axis_km": 6853.299456794413,
      "eccentricity": 9.648e-05,
      "inclination_deg": 53.1577,
      "raan_deg": 238.9659,
      "arg_perigee_deg": 76.2108,
      "mean_anomaly_deg": 283.9,
      "mean_motion_rev_day": 15.30217621
    },
    {
      "epoch": "2026-03-30T13:07:36.485184Z",
      "apogee_km": 475.77259556224,
      "perigee_km": 474.64631660564646,
      "latitude_deg": 4.047842577127419e-05,
      "longitude_deg": -148.6031147977812,
      "height_km": 475.9833905853894,
      "semi_major_axis_km": 6853.346456083943,
      "eccentricity": 8.217e-05,
      "inclination_deg": 53.1587,
      "raan_deg": 236.236,
      "arg_perigee_deg": 77.2143,
      "mean_anomaly_deg": 282.895,
      "mean_motion_rev_day": 15.3020188
    },
    {
      "epoch": "2026-03-30T19:23:49.373376Z",
      "apogee_km": 475.8574575189723,
      "perigee_km": 474.51927720774074,
      "latitude_deg": 4.0509940490742456e-06,
      "longitude_deg": 115.87294768034684,
      "height_km": 476.01671343385357,
      "semi_major_axis_km": 6853.325367363356,
      "eccentricity": 9.763e-05,
      "inclination_deg": 53.1586,
      "raan_deg": 235.0233,
      "arg_perigee_deg": 83.9959,
      "mean_anomaly_deg": 276.1153,
      "mean_motion_rev_day": 15.30208943
    },
    {
      "epoch": "2026-03-31T18:54:37.323072Z",
      "apogee_km": 475.2748828609183,
      "perigee_km": 475.04050018246926,
      "latitude_deg": -3.466183940490455e-05,
      "longitude_deg": 117.65577205182684,
      "height_km": 475.9798963476937,
      "semi_major_axis_km": 6853.2946915216935,
      "eccentricity": 1.71e-05,
      "inclination_deg": 53.1594,
      "raan_deg": 230.4716,
      "arg_perigee_deg": 48.7336,
      "mean_anomaly_deg": 311.3679,
      "mean_motion_rev_day": 15.30219217
    },
    {
      "epoch": "2026-04-01T15:17:19.044672Z",
      "apogee_km": 476.25890407901716,
      "perigee_km": 474.06584827863935,
      "latitude_deg": -2.2706293690627725e-05,
      "longitude_deg": 167.2013368071636,
      "height_km": 475.9598924592145,
      "semi_major_axis_km": 6853.299376178828,
      "eccentricity": 0.00016,
      "inclination_deg": 53.16,
      "raan_deg": 226.5279,
      "arg_perigee_deg": 84.7612,
      "mean_anomaly_deg": 275.3571,
      "mean_motion_rev_day": 15.30217648
    },
    {
      "epoch": "2026-04-02T14:48:06.682464Z",
      "apogee_km": 475.2898064658648,
      "perigee_km": 475.16329337473326,
      "latitude_deg": -4.723663481718173e-06,
      "longitude_deg": 168.9863061290243,
      "height_km": 476.06357862366485,
      "semi_major_axis_km": 6853.363549920298,
      "eccentricity": 9.23e-06,
      "inclination_deg": 53.1652,
      "raan_deg": 221.977,
      "arg_perigee_deg": 1.5569,
      "mean_anomaly_deg": 358.5432,
      "mean_motion_rev_day": 15.30196155
    },
    {
      "epoch": "2026-04-03T17:27:01.646496Z",
      "apogee_km": 476.0551750264831,
      "perigee_km": 474.68310309744174,
      "latitude_deg": 3.7980968581757834e-05,
      "longitude_deg": 123.00640219948079,
      "height_km": 476.44508572278363,
      "semi_major_axis_km": 6853.506139061962,
      "eccentricity": 0.0001001,
      "inclination_deg": 53.1591,
      "raan_deg": 216.8205,
      "arg_perigee_deg": 105.0025,
      "mean_anomaly_deg": 255.1087,
      "mean_motion_rev_day": 15.30148401
    },
    {
      "epoch": "2026-04-04T15:23:46.336128Z",
      "apogee_km": 475.9226564399278,
      "perigee_km": 474.40122407519175,
      "latitude_deg": -2.9167618753594284e-05,
      "longitude_deg": 148.67206493172134,
      "height_km": 476.2636277881291,
      "semi_major_axis_km": 6853.2989402575595,
      "eccentricity": 0.000111,
      "inclination_deg": 53.1607,
      "raan_deg": 212.5737,
      "arg_perigee_deg": 105.4973,
      "mean_anomaly_deg": 254.615,
      "mean_motion_rev_day": 15.30217794
    },
    {
      "epoch": "2026-04-05T13:20:31.360128Z",
      "apogee_km": 476.33801559664516,
      "perigee_km": 474.0710672815667,
      "latitude_deg": 5.4759047892288695e-05,
      "longitude_deg": 174.33754249998404,
      "height_km": 477.0757405359778,
      "semi_major_axis_km": 6853.341541439106,
      "eccentricity": 0.00016539,
      "inclination_deg": 53.1604,
      "raan_deg": 208.328,
      "arg_perigee_deg": 149.0948,
      "mean_anomaly_deg": 211.0151,
      "mean_motion_rev_day": 15.30203526
    },
    {
      "epoch": "2026-04-05T16:28:37.975296Z",
      "apogee_km": 475.86529441528,
      "perigee_km": 474.5563049855373,
      "latitude_deg": 3.90024159528068e-05,
      "longitude_deg": 126.57241043530784,
      "height_km": 476.22270484936655,
      "semi_major_axis_km": 6853.347799700408,
      "eccentricity": 9.55e-05,
      "inclination_deg": 53.1591,
      "raan_deg": 207.7192,
      "arg_perigee_deg": 99.9856,
      "mean_anomaly_deg": 260.1253,
      "mean_motion_rev_day": 15.3020143
    },
    {
      "epoch": "2026-04-06T00:18:53.647488Z",
      "apogee_km": 475.8199335465115,
      "perigee_km": 474.5171201658559,
      "latitude_deg": 4.194331087077672e-05,
      "longitude_deg": 7.168728876838286,
      "height_km": 476.16239015339664,
      "semi_major_axis_km": 6853.305526856183,
      "eccentricity": 9.505e-05,
      "inclination_deg": 53.1588,
      "raan_deg": 206.2027,
      "arg_perigee_deg": 98.428,
      "mean_anomaly_deg": 261.6829,
      "mean_motion_rev_day": 15.30215588
    },
    {
      "epoch": "2026-04-07T13:56:09.875040Z",
      "apogee_km": 476.75711973187936,
      "perigee_km": 473.66900019486,
      "latitude_deg": 9.768362101698374e-06,
      "longitude_deg": 154.02503922432226,
      "height_km": 476.11184646961397,
      "semi_major_axis_km": 6853.350059963369,
      "eccentricity": 0.0002253,
      "inclination_deg": 53.1587,
      "raan_deg": 198.9217,
      "arg_perigee_deg": 90.0841,
      "mean_anomaly_deg": 270.0418,
      "mean_motion_rev_day": 15.30200673
    },
    {
      "epoch": "2026-04-08T13:26:57.808320Z",
      "apogee_km": 476.12472040123885,
      "perigee_km": 474.40355723923585,
      "latitude_deg": 2.8132035117558405e-05,
      "longitude_deg": 155.80817042205376,
      "height_km": 475.7698603370783,
      "semi_major_axis_km": 6853.401138820237,
      "eccentricity": 0.00012557,
      "inclination_deg": 53.1573,
      "raan_deg": 194.3702,
      "arg_perigee_deg": 62.8825,
      "mean_anomaly_deg": 297.2304,
      "mean_motion_rev_day": 15.30183566
    },
    {
      "epoch": "2026-04-09T12:57:45.907488Z",
      "apogee_km": 475.9694195403472,
      "perigee_km": 474.4041203912875,
      "latitude_deg": -3.36179004715264e-05,
      "longitude_deg": 157.59394886413688,
      "height_km": 476.0511969967291,
      "semi_major_axis_km": 6853.323769965817,
      "eccentricity": 0.0001142,
      "inclination_deg": 53.1568,
      "raan_deg": 189.8221,
      "arg_perigee_deg": 87.5476,
      "mean_anomaly_deg": 272.5655,
      "mean_motion_rev_day": 15.30209478
    },
    {
      "epoch": "2026-04-10T12:28:33.699936Z",
      "apogee_km": 475.9855265412316,
      "perigee_km": 474.44489296447955,
      "latitude_deg": -2.3827221615431736e-05,
      "longitude_deg": 159.37646246294003,
      "height_km": 476.07242925783044,
      "semi_major_axis_km": 6853.352209752856,
      "eccentricity": 0.0001124,
      "inclination_deg": 53.1574,
      "raan_deg": 185.2694,
      "arg_perigee_deg": 86.9653,
      "mean_anomaly_deg": 273.1476,
      "mean_motion_rev_day": 15.30199953
    },
    {
      "epoch": "2026-04-11T11:59:21.780096Z",
      "apogee_km": 476.1112982755658,
      "perigee_km": 474.3746517898926,
      "latitude_deg": 1.2720781028979957e-05,
      "longitude_deg": 161.15899457093522,
      "height_km": 476.1607106780105,
      "semi_major_axis_km": 6853.379975032729,
      "eccentricity": 0.0001267,
      "inclination_deg": 53.1578,
      "raan_deg": 180.7179,
      "arg_perigee_deg": 91.3131,
      "mean_anomaly_deg": 268.8015,
      "mean_motion_rev_day": 15.30190654
    },
    {
      "epoch": "2026-04-12T14:38:16.173024Z",
      "apogee_km": 475.8376865874325,
      "perigee_km": 474.6390312371577,
      "latitude_deg": -1.0920657927325964e-05,
      "longitude_deg": 115.1811260217016,
      "height_km": 475.95492098435096,
      "semi_major_axis_km": 6853.375358912294,
      "eccentricity": 8.745e-05,
      "inclination_deg": 53.159,
      "raan_deg": 175.5611,
      "arg_perigee_deg": 72.3223,
      "mean_anomaly_deg": 287.7873,
      "mean_motion_rev_day": 15.301922
    },
    {
      "epoch": "2026-04-14T10:31:45.584256Z",
      "apogee_km": 476.2516086997157,
      "perigee_km": 474.1727137651469,
      "latitude_deg": 4.197097110030245e-05,
      "longitude_deg": 166.51015969747286,
      "height_km": 476.0846020518792,
      "semi_major_axis_km": 6853.3491612324315,
      "eccentricity": 0.00015167,
      "inclination_deg": 53.1612,
      "raan_deg": 167.0652,
      "arg_perigee_deg": 88.5989,
      "mean_anomaly_deg": 271.5186,
      "mean_motion_rev_day": 15.30200974
    }
  ]
}